[{"OBJECT_NAME":"STARLINK-4474","OBJECT_ID":"2022-101W","EPOCH":"2026-03-09T10:15:08.317440","MEAN_MOTION":15.08853734,"ECCENTRICITY":0.00019503,"INCLINATION":53.2185,"RA_OF_ASC_NODE":65.3038,"ARG_OF_PERICENTER":40.5655,"MEAN_ANOMALY":319.5483,"EPHEMERIS_TYPE":0,"CLASSIFICATION_TYPE":"U","NORAD_CAT_ID":53547,"ELEMENT_SET_NO":999,"REV_AT_EPOCH":19693,"BSTAR":0.00014085464,"MEAN_MOTION_DOT":1.955e-5,"MEAN_MOTION_DDOT":0},{"OBJECT_NAME":"CZ-4C DEB","OBJECT_ID":"2015-069E","EPOCH":"2026-03-08T09:26:17.543040","MEAN_MOTION":15.0129982,"ECCENTRICITY":0.00755181,"INCLINATION":98.2766,"RA_OF_ASC_NODE":51.2744,"ARG_OF_PERICENTER":283.3594,"MEAN_ANOMALY":75.9217,"EPHEMERIS_TYPE":0,"CLASSIFICATION_TYPE":"U","NORAD_CAT_ID":42672,"ELEMENT_SET_NO":999,"REV_AT_EPOCH":54397,"BSTAR":0.0018440127,"MEAN_MOTION_DOT":0.00025217,"MEAN_MOTION_DDOT":0}]
